{"type": "FeatureCollection", "features": [ {"type": "Feature", "properties": {"norad_id": 29919, "name": "FENGYUN 1C DEB", "group": "fengyun-1c-debris", "lat": -46.16106724988917, "lon": -34.92253165734183, "alt_km": 930.3572651923478, "timestamp": "2025-12-26T22:28:06.056472+00:00", "meta": {"OBJECT_NAME": "FENGYUN 1C DEB", "OBJECT_ID": "1999-025HR", "EPOCH": "2025-12-26T09:22:00.077952", "MEAN_MOTION": 13.85128923, "ECCENTRICITY": 0.01368556, "INCLINATION": 98.4799, "RA_OF_ASC_NODE": 153.5211, "ARG_OF_PERICENTER": 306.2623, "MEAN_ANOMALY": 81.3795, "EPHEMERIS_TYPE": 0, "CLASSIFICATION_TYPE": "U", "NORAD_CAT_ID": 29919, "ELEMENT_SET_NO": 999, "REV_AT_EPOCH": 95724, "BSTAR": 0.00019554599, "MEAN_MOTION_DOT": 1.99e-06, "MEAN_MOTION_DDOT": 0}, "tle": {"line1": "1 29919U 99025HR  25360.39027868  .00000199  00000+0  19555-3 0  9990", "line2": "2 29919  98.4799 153.5211 0136855 306.2623  81.3795 13.85128923957248"}}, "geometry": {"type": "Point", "coordinates": [-34.92253165734183, -46.16106724988917]}}, {"type": "Feature", "properties": {"norad_id": 29920, "name": "FENGYUN 1C DEB", "group": "fengyun-1c-debris", "lat": -26.866699580664353, "lon": -141.36277397706016, "alt_km": 889.110290901127, "timestamp": "2025-12-26T22:28:06.056482+00:00", "meta": {"OBJECT_NAME": "FENGYUN 1C DEB", "OBJECT_ID": "1999-025HS", "EPOCH": "2025-12-21T12:34:58.800288", "MEAN_MOTION": 14.03693596, "ECCENTRICITY": 0.01249732, "INCLINATION": 98.3912, "RA_OF_ASC_NODE": 209.3515, "ARG_OF_PERICENTER": 255.9523, "MEAN_ANOMALY": 102.7727, "EPHEMERIS_TYPE": 0, "CLASSIFICATION_TYPE": "U", "NORAD_CAT_ID": 29920, "ELEMENT_SET_NO": 999, "REV_AT_EPOCH": 96411, "BSTAR": 0.0011522683, "MEAN_MOTION_DOT": 1.901e-05, "MEAN_MOTION_DDOT": 0}, "tle": {"line1": "1 29920U 99025HS  25355.52429167  .00001901  00000+0  11523-2 0  9997", "line2": "2 29920  98.3912 209.3515 0124973 255.9523 102.7727 14.03693596964111"}}, "geometry": {"type": "Point", "coordinates": [-141.36277397706016, -26.866699580664353]}}, {"type": "Feature", "properties": {"norad_id": 29921, "name": "FENGYUN 1C DEB", "group": "fengyun-1c-debris", "lat": -41.4828697259313, "lon": 14.50310587391624, "alt_km": 867.0725201125033, "timestamp": "2025-12-26T22:28:06.056493+00:00", "meta": {"OBJECT_NAME": "FENGYUN 1C DEB", "OBJECT_ID": "1999-025HT", "EPOCH": "2025-12-25T13:07:24.072096", "MEAN_MOTION": 14.06658608, "ECCENTRICITY": 0.0046026, "INCLINATION": 98.7868, "RA_OF_ASC_NODE": 5.2936, "ARG_OF_PERICENTER": 34.238, "MEAN_ANOMALY": 92.4154, "EPHEMERIS_TYPE": 0, "CLASSIFICATION_TYPE": "U", "NORAD_CAT_ID": 29921, "ELEMENT_SET_NO": 999, "REV_AT_EPOCH": 97056, "BSTAR": 0.00047727, "MEAN_MOTION_DOT": 7.57e-06, "MEAN_MOTION_DDOT": 0}, "tle": {"line1": "1 29921U 99025HT  25359.54680639  .00000757  00000+0  47727-3 0  9991", "line2": "2 29921  98.7868   5.2936 0046026  34.2380  92.4154 14.06658608970560"}}, "geometry": {"type": "Point", "coordinates": [14.50310587391624, -41.4828697259313]}}, {"type": "Feature", "properties": {"norad_id": 29922, "name": "FENGYUN 1C DEB", "group": "fengyun-1c-debris", "lat": 53.89489995574396, "lon": 45.5869716493759, "alt_km": 889.6107198929521, "timestamp": "2025-12-26T22:28:06.056503+00:00", "meta": {"OBJECT_NAME": "FENGYUN 1C DEB", "OBJECT_ID": "1999-025HU", "EPOCH": "2025-12-26T10:11:25.650816", "MEAN_MOTION": 13.98584144, "ECCENTRICITY": 0.00924175, "INCLINATION": 99.133, "RA_OF_ASC_NODE": 57.8195, "ARG_OF_PERICENTER": 329.2168, "MEAN_ANOMALY": 30.3595, "EPHEMERIS_TYPE": 0, "CLASSIFICATION_TYPE": "U", "NORAD_CAT_ID": 29922, "ELEMENT_SET_NO": 999, "REV_AT_EPOCH": 96632, "BSTAR": 0.00010595848, "MEAN_MOTION_DOT": 1.12e-06, "MEAN_MOTION_DDOT": 0}, "tle": {"line1": "1 29922U 99025HU  25360.42460244  .00000112  00000+0  10596-3 0  9998", "line2": "2 29922  99.1330  57.8195 0092417 329.2168  30.3595 13.98584144966328"}}, "geometry": {"type": "Point", "coordinates": [45.5869716493759, 53.89489995574396]}}, {"type": "Feature", "properties": {"norad_id": 29923, "name": "FENGYUN 1C DEB", "group": "fengyun-1c-debris", "lat": -42.74880085988413, "lon": 16.953676274428037, "alt_km": 865.5568320534185, "timestamp": "2025-12-26T22:28:06.056514+00:00", "meta": {"OBJECT_NAME": "FENGYUN 1C DEB", "OBJECT_ID": "1999-025HV", "EPOCH": "2025-12-26T07:27:51.458400", "MEAN_MOTION": 14.13916089, "ECCENTRICITY": 0.00180894, "INCLINATION": 98.6879, "RA_OF_ASC_NODE": 8.221, "ARG_OF_PERICENTER": 131.5706, "MEAN_ANOMALY": 244.7897, "EPHEMERIS_TYPE": 0, "CLASSIFICATION_TYPE": "U", "NORAD_CAT_ID": 29923, "ELEMENT_SET_NO": 999, "REV_AT_EPOCH": 97467, "BSTAR": 0.00046572815, "MEAN_MOTION_DOT": 8.42e-06, "MEAN_MOTION_DDOT": 0}, "tle": {"line1": "1 29923U 99025HV  25360.31101225  .00000842  00000+0  46573-3 0  9992", "line2": "2 29923  98.6879   8.2210 0018089 131.5706 244.7897 14.13916089974672"}}, "geometry": {"type": "Point", "coordinates": [16.953676274428037, -42.74880085988413]}}, {"type": "Feature", "properties": {"norad_id": 29924, "name": "FENGYUN 1C DEB", "group": "fengyun-1c-debris", "lat": 34.601307363897476, "lon": 7.364815941829494, "alt_km": 879.8516996949229, "timestamp": "2025-12-26T22:28:06.056524+00:00", "meta": {"OBJECT_NAME": "FENGYUN 1C DEB", "OBJECT_ID": "1999-025HW", "EPOCH": "2025-12-26T00:16:46.177248", "MEAN_MOTION": 14.08893707, "ECCENTRICITY": 0.00262673, "INCLINATION": 98.7338, "RA_OF_ASC_NODE": 12.5568, "ARG_OF_PERICENTER": 218.9429, "MEAN_ANOMALY": 169.56, "EPHEMERIS_TYPE": 0, "CLASSIFICATION_TYPE": "U", "NORAD_CAT_ID": 29924, "ELEMENT_SET_NO": 999, "REV_AT_EPOCH": 97395, "BSTAR": 2.410519e-06, "MEAN_MOTION_DOT": -3.9e-07, "MEAN_MOTION_DDOT": 0}, "tle": {"line1": "1 29924U 99025HW  25360.01164557 -.00000039  00000+0  24105-5 0  9995", "line2": "2 29924  98.7338  12.5568 0026267 218.9429 169.5600 14.08893707973958"}}, "geometry": {"type": "Point", "coordinates": [7.364815941829494, 34.601307363897476]}}, {"type": "Feature", "properties": {"norad_id": 29926, "name": "FENGYUN 1C DEB", "group": "fengyun-1c-debris", "lat": 72.200027346688, "lon": -37.74243051085191, "alt_km": 950.4770167763645, "timestamp": "2025-12-26T22:28:06.056534+00:00", "meta": {"OBJECT_NAME": "FENGYUN 1C DEB", "OBJECT_ID": "1999-025HY", "EPOCH": "2025-12-26T11:06:58.618944", "MEAN_MOTION": 14.33427926, "ECCENTRICITY": 0.02479004, "INCLINATION": 98.2844, "RA_OF_ASC_NODE": 348.7923, "ARG_OF_PERICENTER": 259.0958, "MEAN_ANOMALY": 255.5058, "EPHEMERIS_TYPE": 0, "CLASSIFICATION_TYPE": "U", "NORAD_CAT_ID": 29926, "ELEMENT_SET_NO": 999, "REV_AT_EPOCH": 98777, "BSTAR": 0.00030214037, "MEAN_MOTION_DOT": 1.123e-05, "MEAN_MOTION_DDOT": 0}, "tle": {"line1": "1 29926U 99025HY  25360.46317846  .00001123  00000+0  30214-3 0  9997", "line2": "2 29926  98.2844 348.7923 0247900 259.0958 255.5058 14.33427926987770"}}, "geometry": {"type": "Point", "coordinates": [-37.74243051085191, 72.200027346688]}}, {"type": "Feature", "properties": {"norad_id": 29927, "name": "FENGYUN 1C DEB", "group": "fengyun-1c-debris", "lat": 22.753089385019823, "lon": -149.55267677333512, "alt_km": 632.0112152997535, "timestamp": "2025-12-26T22:28:06.056544+00:00", "meta": {"OBJECT_NAME": "FENGYUN 1C DEB", "OBJECT_ID": "1999-025HZ", "EPOCH": "2025-12-25T13:53:01.192128", "MEAN_MOTION": 14.75020667, "ECCENTRICITY": 0.0018124, "INCLINATION": 99.0831, "RA_OF_ASC_NODE": 25.0782, "ARG_OF_PERICENTER": 171.5458, "MEAN_ANOMALY": 339.9554, "EPHEMERIS_TYPE": 0, "CLASSIFICATION_TYPE": "U", "NORAD_CAT_ID": 29927, "ELEMENT_SET_NO": 999, "REV_AT_EPOCH": 98836, "BSTAR": 0.0029982, "MEAN_MOTION_DOT": 0.00020225, "MEAN_MOTION_DDOT": 0}, "tle": {"line1": "1 29927U 99025HZ  25359.57848602  .00020225  00000+0  29982-2 0  9990", "line2": "2 29927  99.0831  25.0782 0018124 171.5458 339.9554 14.75020667988362"}}, "geometry": {"type": "Point", "coordinates": [-149.55267677333512, 22.753089385019823]}}, {"type": "Feature", "properties": {"norad_id": 29928, "name": "FENGYUN 1C DEB", "group": "fengyun-1c-debris", "lat": 16.01832137503735, "lon": -151.64008285942495, "alt_km": 949.3384652881523, "timestamp": "2025-12-26T22:28:06.056554+00:00", "meta": {"OBJECT_NAME": "FENGYUN 1C DEB", "OBJECT_ID": "1999-025JA", "EPOCH": "2025-12-26T15:23:01.574880", "MEAN_MOTION": 13.88107684, "ECCENTRICITY": 0.01430046, "INCLINATION": 99.5832, "RA_OF_ASC_NODE": 25.2769, "ARG_OF_PERICENTER": 66.1869, "MEAN_ANOMALY": 61.4907, "EPHEMERIS_TYPE": 0, "CLASSIFICATION_TYPE": "U", "NORAD_CAT_ID": 29928, "ELEMENT_SET_NO": 999, "REV_AT_EPOCH": 95684, "BSTAR": 0.00064845463, "MEAN_MOTION_DOT": 7.93e-06, "MEAN_MOTION_DDOT": 0}, "tle": {"line1": "1 29928U 99025JA  25360.64099045  .00000793  00000+0  64845-3 0  9996", "line2": "2 29928  99.5832  25.2769 0143004  66.1869  61.4907 13.88107684956842"}}, "geometry": {"type": "Point", "coordinates": [-151.64008285942495, 16.01832137503735]}}, {"type": "Feature", "properties": {"norad_id": 29929, "name": "FENGYUN 1C DEB", "group": "fengyun-1c-debris", "lat": -18.268387926823706, "lon": -77.72235366419905, "alt_km": 980.354480830797, "timestamp": "2025-12-26T22:28:06.056565+00:00", "meta": {"OBJECT_NAME": "FENGYUN 1C DEB", "OBJECT_ID": "1999-025JB", "EPOCH": "2025-12-25T17:34:16.221216", "MEAN_MOTION": 14.01399597, "ECCENTRICITY": 0.0131859, "INCLINATION": 98.6246, "RA_OF_ASC_NODE": 278.2677, "ARG_OF_PERICENTER": 139.7843, "MEAN_ANOMALY": 251.3836, "EPHEMERIS_TYPE": 0, "CLASSIFICATION_TYPE": "U", "NORAD_CAT_ID": 29929, "ELEMENT_SET_NO": 999, "REV_AT_EPOCH": 96138, "BSTAR": 0.0010439324, "MEAN_MOTION_DOT": 1.659e-05, "MEAN_MOTION_DDOT": 0}, "tle": {"line1": "1 29929U 99025JB  25359.73213219  .00001659  00000+0  10439-2 0  9997", "line2": "2 29929  98.6246 278.2677 0131859 139.7843 251.3836 14.01399597961382"}}, "geometry": {"type": "Point", "coordinates": [-77.72235366419905, -18.268387926823706]}}]}